FENGYUN 1C DEB          
1 37707U 99025ELY 17344.08240949  .00000222  00000-0  71158-4 0  9996
2 37707 100.1956  68.3581 0171744 135.9320 345.4488 14.44103459437663
